[{"OBJECT_NAME":"ASRTU-1 (AO-123)","OBJECT_ID":"2024-199AY","EPOCH":"2026-03-09T22:36:42.151392","MEAN_MOTION":15.34070057,"ECCENTRICITY":0.0012786,"INCLINATION":97.3152,"RA_OF_ASC_NODE":298.5256,"ARG_OF_PERICENTER":309.3392,"MEAN_ANOMALY":50.6717,"EPHEMERIS_TYPE":0,"CLASSIFICATION_TYPE":"U","NORAD_CAT_ID":61781,"ELEMENT_SET_NO":999,"REV_AT_EPOCH":11870,"BSTAR":0.00032267684,"MEAN_MOTION_DOT":0.00010589,"MEAN_MOTION_DDOT":0},{"OBJECT_NAME":"STARLINK-33803","OBJECT_ID":"2025-071AA","EPOCH":"2026-03-09T12:13:11.554464","MEAN_MOTION":15.30186695,"ECCENTRICITY":0.00012328,"INCLINATION":53.1591,"RA_OF_ASC_NODE":140.6174,"ARG_OF_PERICENTER":89.2697,"MEAN_ANOMALY":270.8445,"EPHEMERIS_TYPE":0,"CLASSIFICATION_TYPE":"U","NORAD_CAT_ID":63517,"ELEMENT_SET_NO":999,"REV_AT_EPOCH":5274,"BSTAR":0.00068079167,"MEAN_MOTION_DOT":0.0001985,"MEAN_MOTION_DDOT":0}]
